{
  "norad_id": 61564,
  "name": "QIANFAN-31",
  "history": [
    {
      "epoch": "2026-03-28T22:22:40.158336Z",
      "apogee_km": 1049.7747811694908,
      "perigee_km": 1036.0720899176777,
      "latitude_deg": -4.709203375410026e-05,
      "longitude_deg": -92.5030876609439,
      "height_km": 1044.8294641991076,
      "semi_major_axis_km": 7421.060435543584,
      "eccentricity": 0.00092323,
      "inclination_deg": 88.9746,
      "raan_deg": 69.51,
      "arg_perigee_deg": 81.2916,
      "mean_anomaly_deg": 278.9284,
      "mean_motion_rev_day": 13.58012631
    },
    {
      "epoch": "2026-03-29T03:40:58.294272Z",
      "apogee_km": 1049.7716576244138,
      "perigee_km": 1036.0738655165087,
      "latitude_deg": 2.976093257230604e-05,
      "longitude_deg": -172.31962280003188,
      "height_km": 1044.7727678339888,
      "semi_major_axis_km": 7421.059761570461,
      "eccentricity": 0.0009229,
      "inclination_deg": 88.9747,
      "raan_deg": 69.4869,
      "arg_perigee_deg": 80.8139,
      "mean_anomaly_deg": 279.406,
      "mean_motion_rev_day": 13.58012816
    },
    {
      "epoch": "2026-03-30T04:26:22.926048Z",
      "apogee_km": 1049.7610603978746,
      "perigee_km": 1036.0810819494736,
      "latitude_deg": 4.01243049163484e-05,
      "longitude_deg": 175.2029182486033,
      "height_km": 1044.5010233994863,
      "semi_major_axis_km": 7421.058071173674,
      "eccentricity": 0.0009217,
      "inclination_deg": 88.9749,
      "raan_deg": 69.3788,
      "arg_perigee_deg": 78.5007,
      "mean_anomaly_deg": 281.7183,
      "mean_motion_rev_day": 13.5801328
    },
    {
      "epoch": "2026-03-30T06:12:28.969632Z",
      "apogee_km": 1049.7613598032221,
      "perigee_km": 1036.0804910964962,
      "latitude_deg": -9.190313881191373e-06,
      "longitude_deg": 148.5974124892433,
      "height_km": 1044.4827514862618,
      "semi_major_axis_km": 7421.057925449859,
      "eccentricity": 0.00092176,
      "inclination_deg": 88.9749,
      "raan_deg": 69.3711,
      "arg_perigee_deg": 78.3463,
      "mean_anomaly_deg": 281.8726,
      "mean_motion_rev_day": 13.5801332
    },
    {
      "epoch": "2026-03-30T13:16:53.139648Z",
      "apogee_km": 1049.7606097173293,
      "perigee_km": 1036.0800389610577,
      "latitude_deg": 4.7246120669407254e-05,
      "longitude_deg": 42.1753120171232,
      "height_km": 1044.4055341911142,
      "semi_major_axis_km": 7421.057324339194,
      "eccentricity": 0.00092174,
      "inclination_deg": 88.9749,
      "raan_deg": 69.3402,
      "arg_perigee_deg": 77.6897,
      "mean_anomaly_deg": 282.529,
      "mean_motion_rev_day": 13.58013485
    },
    {
      "epoch": "2026-03-30T22:07:23.350656Z",
      "apogee_km": 1049.7593268533456,
      "perigee_km": 1036.0799447354539,
      "latitude_deg": -4.363962344585994e-06,
      "longitude_deg": -90.85228443027492,
      "height_km": 1044.3085327001256,
      "semi_major_axis_km": 7421.0566357944,
      "eccentricity": 0.00092166,
      "inclination_deg": 88.9749,
      "raan_deg": 69.3016,
      "arg_perigee_deg": 76.8608,
      "mean_anomaly_deg": 283.3575,
      "mean_motion_rev_day": 13.58013674
    },
    {
      "epoch": "2026-03-31T21:06:41.869728Z",
      "apogee_km": 1049.7422308410487,
      "perigee_km": 1036.093426799881,
      "latitude_deg": 2.5677097811083107e-05,
      "longitude_deg": -76.7239485947877,
      "height_km": 1044.057278635226,
      "semi_major_axis_km": 7421.0548288204645,
      "eccentricity": 0.0009196,
      "inclination_deg": 88.9751,
      "raan_deg": 69.2012,
      "arg_perigee_deg": 74.6678,
      "mean_anomaly_deg": 285.5493,
      "mean_motion_rev_day": 13.5801417
    },
    {
      "epoch": "2026-04-01T20:06:00.356832Z",
      "apogee_km": 1049.716922793952,
      "perigee_km": 1036.1156163614696,
      "latitude_deg": 2.292931985404204e-05,
      "longitude_deg": -62.59537990197411,
      "height_km": 1043.8128565742486,
      "semi_major_axis_km": 7421.053269577711,
      "eccentricity": 0.0009164,
      "inclination_deg": 88.9753,
      "raan_deg": 69.1009,
      "arg_perigee_deg": 72.4765,
      "mean_anomaly_deg": 287.7391,
      "mean_motion_rev_day": 13.58014598
    },
    {
      "epoch": "2026-04-02T20:51:24.837408Z",
      "apogee_km": 1049.699367751552,
      "perigee_km": 1036.1277504890322,
      "latitude_deg": -5.6353778791534436e-05,
      "longitude_deg": -75.0721085602114,
      "height_km": 1043.548389942599,
      "semi_major_axis_km": 7421.050559120292,
      "eccentricity": 0.0009144,
      "inclination_deg": 88.9755,
      "raan_deg": 68.9929,
      "arg_perigee_deg": 70.0998,
      "mean_anomaly_deg": 290.1141,
      "mean_motion_rev_day": 13.58015342
    },
    {
      "epoch": "2026-04-02T22:37:30.868896Z",
      "apogee_km": 1049.696899490731,
      "perigee_km": 1036.1298835859288,
      "latitude_deg": 8.855664150765083e-05,
      "longitude_deg": -101.677560359398,
      "height_km": 1043.529419414627,
      "semi_major_axis_km": 7421.05039153833,
      "eccentricity": 0.00091409,
      "inclination_deg": 88.9755,
      "raan_deg": 68.9852,
      "arg_perigee_deg": 69.9238,
      "mean_anomaly_deg": 290.2901,
      "mean_motion_rev_day": 13.58015388
    },
    {
      "epoch": "2026-04-03T19:50:43.251936Z",
      "apogee_km": 1049.681694153267,
      "perigee_km": 1036.1412491119263,
      "latitude_deg": 5.0708354051940804e-05,
      "longitude_deg": -60.94323585825662,
      "height_km": 1043.3197176549374,
      "semi_major_axis_km": 7421.048471632596,
      "eccentricity": 0.0009123,
      "inclination_deg": 88.9757,
      "raan_deg": 68.8926,
      "arg_perigee_deg": 67.9954,
      "mean_anomaly_deg": 292.217,
      "mean_motion_rev_day": 13.58015915
    },
    {
      "epoch": "2026-04-04T20:36:07.664256Z",
      "apogee_km": 1049.6498603474192,
      "perigee_km": 1036.170270457822,
      "latitude_deg": -4.022911250837817e-05,
      "longitude_deg": -73.41958118067058,
      "height_km": 1043.063811975666,
      "semi_major_axis_km": 7421.04706540262,
      "eccentricity": 0.0009082,
      "inclination_deg": 88.9759,
      "raan_deg": 68.7847,
      "arg_perigee_deg": 65.5306,
      "mean_anomaly_deg": 294.6795,
      "mean_motion_rev_day": 13.58016301
    },
    {
      "epoch": "2026-04-05T14:17:07.943712Z",
      "apogee_km": 1049.6294841351219,
      "perigee_km": 1036.187892500785,
      "latitude_deg": 1.6102996572315975e-05,
      "longitude_deg": 20.525922337790764,
      "height_km": 1042.89471673202,
      "semi_major_axis_km": 7421.045688317953,
      "eccentricity": 0.00090564,
      "inclination_deg": 88.9761,
      "raan_deg": 68.7076,
      "arg_perigee_deg": 63.8718,
      "mean_anomaly_deg": 296.3368,
      "mean_motion_rev_day": 13.58016679
    },
    {
      "epoch": "2026-04-05T21:21:32.048064Z",
      "apogee_km": 1049.621401610044,
      "perigee_km": 1036.1952464098458,
      "latitude_deg": -2.8298865899798772e-05,
      "longitude_deg": -85.89580644782903,
      "height_km": 1042.826769767624,
      "semi_major_axis_km": 7421.045324009945,
      "eccentricity": 0.0009046,
      "inclination_deg": 88.9761,
      "raan_deg": 68.6768,
      "arg_perigee_deg": 63.1936,
      "mean_anomaly_deg": 297.0143,
      "mean_motion_rev_day": 13.58016779
    },
    {
      "epoch": "2026-04-06T06:12:02.175264Z",
      "apogee_km": 1049.6111963564708,
      "perigee_km": 1036.2043368810973,
      "latitude_deg": 3.1175377565899194e-06,
      "longitude_deg": 141.07694747420567,
      "height_km": 1042.743159904549,
      "semi_major_axis_km": 7421.044766618784,
      "eccentricity": 0.0009033,
      "inclination_deg": 88.9762,
      "raan_deg": 68.6382,
      "arg_perigee_deg": 62.3518,
      "mean_anomaly_deg": 297.8553,
      "mean_motion_rev_day": 13.58016932
    },
    {
      "epoch": "2026-04-07T14:01:50.608128Z",
      "apogee_km": 1049.5674822304873,
      "perigee_km": 1036.2438906121415,
      "latitude_deg": 1.4258163781129571e-05,
      "longitude_deg": 22.17922392951263,
      "height_km": 1042.4445165897635,
      "semi_major_axis_km": 7421.042686421314,
      "eccentricity": 0.00089769,
      "inclination_deg": 88.9763,
      "raan_deg": 68.4995,
      "arg_perigee_deg": 59.2319,
      "mean_anomaly_deg": 300.9719,
      "mean_motion_rev_day": 13.58017503
    },
    {
      "epoch": "2026-04-07T21:06:14.696064Z",
      "apogee_km": 1049.5561988037189,
      "perigee_km": 1036.254722297429,
      "latitude_deg": 4.77279319892614e-07,
      "longitude_deg": -84.24243606062892,
      "height_km": 1042.3816758482315,
      "semi_major_axis_km": 7421.042460550574,
      "eccentricity": 0.0008962,
      "inclination_deg": 88.9763,
      "raan_deg": 68.4687,
      "arg_perigee_deg": 58.5432,
      "mean_anomaly_deg": 301.6598,
      "mean_motion_rev_day": 13.58017565
    },
    {
      "epoch": "2026-04-08T14:47:14.904672Z",
      "apogee_km": 1049.527563182979,
      "perigee_km": 1036.2810044913294,
      "latitude_deg": -1.391081924725067e-06,
      "longitude_deg": 9.703361375357145,
      "height_km": 1042.2281203273149,
      "semi_major_axis_km": 7421.041283837154,
      "eccentricity": 0.0008925,
      "inclination_deg": 88.9764,
      "raan_deg": 68.3916,
      "arg_perigee_deg": 56.8324,
      "mean_anomaly_deg": 303.3686,
      "mean_motion_rev_day": 13.58017888
    }
  ]
}